GLOBALSTAR M067 [+]     
1 32263U 07048A   24038.72778384 -.00000060  00000+0  27883-3 0  9995
2 32263  51.9739  45.6445 0000808  20.6596 152.5343 12.40637569747985
GLOBALSTAR M070 [+]     
1 32264U 07048B   24039.19451900 -.00000098  00000+0  34362-4 0  9992
2 32264  51.9726 196.4097 0001304  98.6519  72.3296 12.62286126752134
GLOBALSTAR M066 [+]     
1 32265U 07048C   24039.46446309 -.00000078  00000+0  14350-3 0  9992
2 32265  51.9682  57.5999 0000557 237.4462 270.0308 12.62259711754394
GLOBALSTAR M068 [-]     
1 32266U 07048D   24038.69406196 -.00000064  00000+0  21924-3 0  9997
2 32266  51.9913  12.6272 0001031 113.6932  58.3547 12.62778175754957
GLOBALSTAR M079 [+]     
1 37188U 10054A   24038.71212615 -.00000098  00000+0  33492-4 0  9991
2 37188  52.0012 208.0915 0000749  89.7827 283.8331 12.62266361613884
GLOBALSTAR M074 [+]     
1 37189U 10054B   24038.73854934 -.00000104  00000+0 -22843-5 0  9998
2 37189  51.9990 207.4108 0001045  94.3217 279.0777 12.62265165614490
GLOBALSTAR M076 [+]     
1 37190U 10054C   24038.76524240 -.00000085  00000+0  10426-3 0  9996
2 37190  52.0004 207.4581 0001023  63.5606 309.6323 12.62274653614210
GLOBALSTAR M077 [+]     
1 37191U 10054D   24039.30714072 -.00000113  00000+0 -49892-4 0  9995
2 37191  52.0062 162.5204 0000967 106.0667 271.2070 12.62269278615383
